# From MPC106342
C/1995 O1 (Hale-Bopp),e,89.2269,282.8605,130.4212,177.2578,0.0004176,0.99497011,0.0000,03/29.6796/1997,2000,g -2.0,4.0
# From NK 1615
P/1996 R2 (Lagerkvist),e,2.6009,40.0100,333.3704,3.774713,0.1343934,0.31451004,163.0787,06/10.0/2022,2000,g 11.5,4.0
# From MPC 75703
P/1998 VS24 (LINEAR),e,5.0266,159.0407,244.6047,4.526164,0.1023549,0.24292233,164.0410,06/10.0/2022,2000,g 13.0,2.0
# From NK 731
P/1999 RO28 (LONEOS),e,7.5665,137.8802,231.2808,3.426571,0.1553870,0.67248492,167.7053,06/10.0/2022,2000,g 20.0,2.0
# From MPC 75704
P/1999 XN120 (Catalina),e,5.0297,285.2962,161.7159,4.179070,0.1153678,0.21029559,210.8697,06/10.0/2022,2000,g 13.5,2.0
# From NK 744
P/2000 R2 (LINEAR),e,11.6874,160.2853,176.5771,3.467404,0.1526502,0.53153072,166.1173,06/10.0/2022,2000,g 18.0,4.0
# From MPC 43019
P/2001 H5 (NEAT),e,8.3670,328.6841,224.7745,6.096452,0.0654769,0.59821044,159.0881,06/10.0/2022,2000,g 12.0,4.0
# From MPC 75704
P/2001 Q6 (NEAT),e,56.9115,22.1820,42.9320,7.957248,0.0439096,0.82325173,332.4042,06/10.0/2022,2000,g 13.5,4.0
# From MPC 47727
P/2002 EJ57 (LINEAR),e,4.9768,330.3168,167.3074,6.465365,0.0599535,0.59228961,87.1478,06/10.0/2022,2000,g 12.5,4.0
# From MPC109588
P/2002 T6 (NEAT-LINEAR),e,10.8479,206.1005,219.6090,7.715379,0.0459905,0.56191233,324.5195,06/10.0/2022,2000,g 10.5,4.0
# From MPC 75007
C/2002 VQ94 (LINEAR),e,70.6728,35.1211,100.0259,184.3321,0.0003938,0.96302878,2.3536,06/10.0/2022,2000,g  9.5,2.0
# From MPC 50354
P/2003 F2 (NEAT),e,11.6094,359.0023,192.2519,6.502794,0.0594366,0.54159012,55.9058,06/10.0/2022,2000,g 16.5,2.0
# From MPC 50139
P/2003 QX29 (NEAT),e,11.3921,264.5293,37.6237,8.018996,0.0434034,0.47273482,309.9465,06/10.0/2022,2000,g  8.5,4.0
# From MPC105235
P/2003 T12 (SOHO),e,11.0225,174.5859,219.7447,2.585625,0.2370587,0.77004297,181.0867,06/10.0/2022,2000,g 17.0,4.0
# From MPC 82312
P/2004 A1 (LONEOS),e,10.5517,124.8559,21.1367,7.968504,0.0438166,0.30975832,286.2211,06/10.0/2022,2000,g  6.5,4.0
# From MPC 54558
P/2004 DO29 (Spacewatch-LINEAR),e,14.5320,147.3740,40.5559,7.292281,0.0500506,0.44115304,323.7111,06/10.0/2022,2000,g 13.5,2.0
# From MPC 54823
P/2004 FY140 (LINEAR),e,2.1348,326.7736,242.2018,4.905894,0.0907041,0.16789001,228.4157,06/10.0/2022,2000,g 12.5,2.0
# From MPC 53304
P/2004 R3 (LINEAR-NEAT),e,12.7820,305.3491,37.7555,4.768906,0.0946403,0.25632541,24.7765,06/10.0/2022,2000,g 14.5,4.0
# From MPC 55521
P/2004 V3 (Siding Spring),e,50.4438,356.1304,322.4509,7.133100,0.0517353,0.44609116,332.5379,06/10.0/2022,2000,g 11.5,4.0
# From MPC 75705
P/2004 V5 (LINEAR-Hill),e,19.3409,47.7881,87.5986,7.986455,0.0436690,0.44429736,277.3604,06/10.0/2022,2000,g  8.0,4.0
# From MPC 54164
P/2005 E1 (Tubbiolo),e,4.2635,335.5723,193.9325,7.047177,0.0526843,0.37537457,334.9386,06/10.0/2022,2000,g 10.0,4.0
# From MPC 54823
P/2005 GF8 (LONEOS),e,1.1792,314.2408,284.5982,5.789016,0.0707615,0.51674730,69.9437,06/10.0/2022,2000,g 11.5,4.0
# From MPC 79019
P/2005 J1 (McNaught),e,31.7455,268.8253,338.9443,3.571465,0.1460274,0.56915941,195.2684,06/10.0/2022,2000,g 16.5,4.0
# From MPC 74246
P/2005 L1 (McNaught),e,7.7362,138.2482,149.8525,3.983521,0.1239662,0.21104482,27.0940,06/10.0/2022,2000,g  9.5,4.0
# From MPC 75706
P/2005 S2 (Skiff),e,3.1356,161.2232,229.3188,8.008282,0.0434906,0.19828911,255.1091,06/10.0/2022,2000,g  7.5,4.0
# From MPC 75706
P/2005 SB216 (LONEOS),e,24.1083,1.1338,83.2722,7.142038,0.0516382,0.46436652,292.0356,06/10.0/2022,2000,g 12.0,2.0
# From MPC 73461
P/2005 T3 (Read),e,6.2236,27.6826,6.6703,7.587683,0.0471564,0.17516358,287.9997,06/10.0/2022,2000,g  9.0,4.0
# From MPC 73461
P/2005 T4 (SWAN),e,160.2570,25.8833,41.7953,9.360159,0.0344175,0.92971437,209.6440,06/10.0/2022,2000,g 15.0,4.0
# From MPC 75706
P/2005 T5 (Broughton),e,21.3747,56.9997,304.6560,7.283597,0.0501401,0.55264110,304.8388,06/10.0/2022,2000,g 11.0,4.0
# From MPC 75706
P/2005 Y2 (McNaught),e,19.0474,94.1923,193.7202,6.344854,0.0616697,0.46837375,37.0356,06/10.0/2022,2000,g  9.0,4.0
# From MPC 56954
P/2006 F4 (Spacewatch),e,12.4512,183.8329,30.6271,3.513230,0.1496733,0.34235950,155.9422,06/10.0/2022,2000,g 15.0,4.0
# From MPC 75707
P/2006 HR30 (Siding Spring),e,31.8478,309.8603,117.3418,7.809832,0.0451587,0.84288915,255.5140,06/10.0/2022,2000,g 11.0,4.0
# From MPEC 2022-L66
C/2006 S3 (LONEOS),h,04/17.6238/2012,166.0349,38.6045,140.5547,1.002203,5.158927,2000,2.0,4.0
# From MPC 75707
P/2007 A2 (Christensen),e,26.4868,300.9120,186.7042,6.334513,0.0618207,0.55819695,349.3626,06/10.0/2022,2000,g 13.5,4.0
# From MPC 75707
P/2007 C2 (Catalina),e,8.6115,275.3433,180.1539,6.996631,0.0532563,0.47182593,286.3582,06/10.0/2022,2000,g 10.0,4.0
# From MPC 84315
C/2007 D1 (LINEAR),e,41.5015,171.2364,339.8541,1233,0.0000228,0.99286580,0.0000,06/07.1208/2007,2000,g  3.5,4.0
# From MPC 82314
P/2007 K2 (Gibbs),e,7.6277,188.6350,347.3744,7.272592,0.0502540,0.68298162,276.3435,06/10.0/2022,2000,g 14.0,4.0
# From MPC 60925
P/2007 Q2 (Gilmore),e,10.2027,172.1529,162.8304,5.655989,0.0732725,0.67009643,41.0330,06/10.0/2022,2000,g 16.0,4.0
# From MPC 73462
P/2007 S1 (Zhao),e,5.9622,141.3652,245.2510,3.823494,0.1318297,0.33971903,344.3063,06/10.0/2022,2000,g 13.0,4.0
# From MPC 61994
P/2007 T2 (Kowalski),e,9.7523,3.3776,359.6552,3.046076,0.1853928,0.78564572,262.5614,06/10.0/2022,2000,g 18.5,4.0
# From MPC 63599
C/2007 W1 (Boattini),e,9.9291,333.8827,307.1533,2329,0.0000088,0.99963527,0.0000,06/29.5269/2008,2000,g  9.5,4.0
# From MPC 75709
P/2008 L2 (Hill),e,25.8680,218.0171,141.2550,6.027523,0.0666033,0.61340706,337.6843,06/10.0/2022,2000,g 12.5,4.0
# From MPC 64114
P/2008 O3 (Boattini),e,32.3178,47.5682,341.1469,8.216986,0.0418442,0.69618696,214.4124,06/10.0/2022,2000,g 13.0,4.0
# From MPC 75710
P/2008 Y3 (McNaught),e,38.7758,262.8403,238.0812,8.047879,0.0431700,0.44564304,212.5590,06/10.0/2022,2000,g  8.5,4.0
# From MPC 75710
P/2009 B1 (Boattini),e,22.2299,297.0793,128.8855,6.737590,0.0563569,0.63540481,276.4761,06/10.0/2022,2000,g 13.0,4.0
# From MPC 66466
C/2009 G1 (STEREO),e,108.5935,120.5155,175.4899,459.4389,0.0001001,0.99752009,0.0000,04/17.7117/2009,2000,g  9.0,4.0
# From MPC 75710
P/2009 O3 (Hill),e,16.2874,183.6864,154.4765,7.767248,0.0455306,0.68786885,216.7828,06/10.0/2022,2000,g 12.5,4.0
# From MPC 68902
P/2009 Q5 (McNaught),e,40.9886,160.2800,209.0791,7.431429,0.0486514,0.60970122,226.4439,06/10.0/2022,2000,g 10.0,4.0
# From MPC112389
P/2009 T2 (La Sagra),e,27.5967,215.8814,216.3325,7.720088,0.0459484,0.76613586,208.8843,06/10.0/2022,2000,g 14.0,4.0
# From MPC105235
P/2009 WX51 (Catalina),e,9.5940,31.5838,118.2441,3.082742,0.1820951,0.73960048,103.9662,06/10.0/2022,2000,g 19.0,2.0
# From MPC 74247
P/2009 Y2 (Kowalski),e,29.9534,262.0362,172.1292,6.550191,0.0587927,0.63655652,263.7733,06/10.0/2022,2000,g 13.0,4.0
# From MPC 75711
P/2010 A3 (Hill),e,14.8178,63.6692,42.2623,6.084532,0.0656694,0.73365263,293.9352,06/10.0/2022,2000,g 14.0,4.0
# From MPC 75008
P/2010 C1 (Scotti),e,9.1272,141.8813,3.4574,7.104322,0.0520499,0.25987658,239.5049,06/10.0/2022,2000,g  9.5,4.0
# From MPC 75008
P/2010 D2 (WISE),e,57.0927,319.8862,119.9523,6.720207,0.0565757,0.45131161,254.9775,06/10.0/2022,2000,g 16.0,4.0
# From MPEC 2021-BE3
C/2010 E3 (WISE),e,96.1217,117.2017,50.5293,231.4069,0.0002800,0.99015695,0.0000,03/29.1135/2010,2000,g 15.0,4.0
# From MPC 75009
P/2010 E2 (Jarnac),e,15.3852,177.8200,8.3220,8.640230,0.0388075,0.71945957,173.0366,06/10.0/2022,2000,g 14.0,4.0
# From MPC 72851
P/2010 H2 (Vales),e,14.2777,64.1876,128.0266,3.832439,0.1313685,0.19639743,228.0517,06/10.0/2022,2000,g  6.0,4.0
# From MPC 70361
P/2010 H3 (SOHO),e,23.0659,77.0865,26.1572,3.036505,0.1862701,0.98535627,0.0000,02/07.8924/2021,2000,g 20.0,2.0
# From MPC 73463
P/2010 H4 (Scotti),e,2.3178,44.7281,179.3933,6.597697,0.0581588,0.26635567,254.8997,06/10.0/2022,2000,g 10.5,4.0
# From MPC 74637
P/2010 H5 (Scotti),e,14.0579,24.7954,174.8739,7.168710,0.0513503,0.15257979,229.1385,06/10.0/2022,2000,g 13.0,2.0
# From MPC 98558
P/2010 J3 (McMillan),e,13.2721,106.4519,157.5916,8.978406,0.0366358,0.72594163,157.7193,06/10.0/2022,2000,g 11.0,4.0
# From MPC 84315
P/2010 JC81 (WISE),e,38.8083,30.8640,12.4233,8.106744,0.0427006,0.77769031,173.6090,06/10.0/2022,2000,g  9.0,4.0
# From MPC 74248
P/2010 T2 (PANSTARRS),e,7.8866,58.6239,352.8407,5.558600,0.0752066,0.32270329,311.3708,06/10.0/2022,2000,g 11.5,4.0
# From MPC 98558
P/2010 TO20 (LINEAR-Grauer),e,2.4788,43.2865,267.2979,5.832852,0.0699653,0.05559735,348.1847,06/10.0/2022,2000,g  9.0,4.0
# From MPC 82316
P/2010 U1 (Boattini),e,8.2185,280.6870,86.1667,6.503994,0.0594202,0.24903239,267.9975,06/10.0/2022,2000,g  9.5,4.0
# From MPEC 2022-L66
C/2010 U3 (Boattini),e,55.5480,42.9999,88.0433,2367,0.0000086,0.99643375,0.0000,02/25.2361/2019,2000,g  1.0,4.0
# From MPC 79021
P/2010 UH55 (Spacewatch),e,8.0386,232.9112,225.1463,6.654606,0.0574144,0.56354566,234.4545,06/10.0/2022,2000,g 11.0,4.0
# From MPC 75009
P/2010 WK (LINEAR),e,11.4016,11.3343,40.9694,5.762436,0.0712516,0.69037703,304.9583,06/10.0/2022,2000,g 14.5,2.0
# From MPC 84021
P/2011 C2 (Gibbs),e,10.8867,12.1211,160.6202,7.412751,0.0488354,0.26902673,186.7392,06/10.0/2022,2000,g  9.0,4.0
# From MPC 79866
P/2011 FR143 (Lemmon),e,15.9758,190.9492,349.9807,6.862346,0.0548271,0.45052217,226.2868,06/10.0/2022,2000,g 14.0,2.0
# From MPC 82317
P/2011 JB15 (Spacewatch-Boattini),e,19.1474,153.5818,111.0716,7.363625,0.0493249,0.31643055,187.1758,06/10.0/2022,2000,g  9.0,4.0
# From MPC 87913
P/2011 N1 (ASH),e,35.7546,77.5810,330.3659,6.245952,0.0631402,0.54478170,231.8271,06/10.0/2022,2000,g 11.5,4.0
# From MPC 75714
P/2011 NO1 (Elenin),e,15.2452,295.8230,263.7244,5.529635,0.0757983,0.77454326,315.6516,06/10.0/2022,2000,g 15.0,4.0
# From MPEC 2022-ED3
P/2011 P1 (McNaught),e,5.6611,4.2316,349.0982,7.460280,0.0483695,0.32762685,209.5855,06/10.0/2022,2000,g  9.0,4.0
# From MPEC 2022-HC2
P/2011 S1 (Gibbs),e,2.6867,218.8398,192.4491,8.582941,0.0391967,0.20128312,112.0119,06/10.0/2022,2000,g  8.0,4.0
# From MPC 79022
